{"type": "FeatureCollection", "features": [ {"type": "Feature", "properties": {"norad_id": 31024, "name": "FENGYUN 1C DEB", "group": "fengyun-1c-debris", "lat": 29.77473922107828, "lon": 74.90977594490589, "alt_km": 767.3051403494283, "timestamp": "2025-12-02T13:52:17.542191+00:00", "meta": {"OBJECT_NAME": "FENGYUN 1C DEB", "OBJECT_ID": "1999-025BDS", "EPOCH": "2025-12-01T23:38:59.870688", "MEAN_MOTION": 14.20837686, "ECCENTRICITY": 0.00746531, "INCLINATION": 99.0413, "RA_OF_ASC_NODE": 249.0771, "ARG_OF_PERICENTER": 155.1825, "MEAN_ANOMALY": 205.2971, "EPHEMERIS_TYPE": 0, "CLASSIFICATION_TYPE": "U", "NORAD_CAT_ID": 31024, "ELEMENT_SET_NO": 999, "REV_AT_EPOCH": 96551, "BSTAR": 0.00031138449, "MEAN_MOTION_DOT": 6.46e-06, "MEAN_MOTION_DDOT": 0}, "tle": {"line1": "1 31024U 99025BDS 25335.98541517  .00000646  00000+0  31138-3 0  9997", "line2": "2 31024  99.0413 249.0771 0074653 155.1825 205.2971 14.20837686965517"}}, "geometry": {"type": "Point", "coordinates": [74.90977594490589, 29.77473922107828]}}, {"type": "Feature", "properties": {"norad_id": 31025, "name": "FENGYUN 1C DEB", "group": "fengyun-1c-debris", "lat": -5.699545758748887, "lon": -32.07157679893429, "alt_km": 742.0596469782131, "timestamp": "2025-12-02T13:52:17.542202+00:00", "meta": {"OBJECT_NAME": "FENGYUN 1C DEB", "OBJECT_ID": "1999-025BDT", "EPOCH": "2025-12-02T05:26:43.790208", "MEAN_MOTION": 14.20491019, "ECCENTRICITY": 0.0173686, "INCLINATION": 98.58, "RA_OF_ASC_NODE": 326.7242, "ARG_OF_PERICENTER": 43.1431, "MEAN_ANOMALY": 318.3207, "EPHEMERIS_TYPE": 0, "CLASSIFICATION_TYPE": "U", "NORAD_CAT_ID": 31025, "ELEMENT_SET_NO": 999, "REV_AT_EPOCH": 64216, "BSTAR": 0.00080719069, "MEAN_MOTION_DOT": 1.974e-05, "MEAN_MOTION_DDOT": 0}, "tle": {"line1": "1 31025U 99025BDT 25336.22689572  .00001974  00000+0  80719-3 0  9994", "line2": "2 31025  98.5800 326.7242 0173686  43.1431 318.3207 14.20491019642160"}}, "geometry": {"type": "Point", "coordinates": [-32.07157679893429, -5.699545758748887]}}, {"type": "Feature", "properties": {"norad_id": 31026, "name": "FENGYUN 1C DEB", "group": "fengyun-1c-debris", "lat": -78.04995030539858, "lon": -40.30160757279624, "alt_km": 921.2290718183458, "timestamp": "2025-12-02T13:52:17.542212+00:00", "meta": {"OBJECT_NAME": "FENGYUN 1C DEB", "OBJECT_ID": "1999-025BDU", "EPOCH": "2025-11-28T13:56:04.665984", "MEAN_MOTION": 13.83390775, "ECCENTRICITY": 0.01338178, "INCLINATION": 98.7776, "RA_OF_ASC_NODE": 269.0802, "ARG_OF_PERICENTER": 221.0198, "MEAN_ANOMALY": 318.7849, "EPHEMERIS_TYPE": 0, "CLASSIFICATION_TYPE": "U", "NORAD_CAT_ID": 31026, "ELEMENT_SET_NO": 999, "REV_AT_EPOCH": 67830, "BSTAR": 0.00019112953, "MEAN_MOTION_DOT": 1.84e-06, "MEAN_MOTION_DDOT": 0}, "tle": {"line1": "1 31026U 99025BDU 25332.58060956  .00000184  00000+0  19113-3 0  9991", "line2": "2 31026  98.7776 269.0802 0133817 221.0198 318.7849 13.83390775678301"}}, "geometry": {"type": "Point", "coordinates": [-40.30160757279624, -78.04995030539858]}}, {"type": "Feature", "properties": {"norad_id": 31028, "name": "FENGYUN 1C DEB", "group": "fengyun-1c-debris", "lat": 76.62344643660062, "lon": -131.0160694544401, "alt_km": 979.0034129651012, "timestamp": "2025-12-02T13:52:17.542223+00:00", "meta": {"OBJECT_NAME": "FENGYUN 1C DEB", "OBJECT_ID": "1999-025BDW", "EPOCH": "2025-11-26T01:54:24.970752", "MEAN_MOTION": 13.89048666, "ECCENTRICITY": 0.01654825, "INCLINATION": 98.7043, "RA_OF_ASC_NODE": 263.016, "ARG_OF_PERICENTER": 340.0889, "MEAN_ANOMALY": 19.3862, "EPHEMERIS_TYPE": 0, "CLASSIFICATION_TYPE": "U", "NORAD_CAT_ID": 31028, "ELEMENT_SET_NO": 999, "REV_AT_EPOCH": 61772, "BSTAR": 0.00043609826, "MEAN_MOTION_DOT": 5.49e-06, "MEAN_MOTION_DDOT": 0}, "tle": {"line1": "1 31028U 99025BDW 25330.07945568  .00000549  00000+0  43610-3 0  9990", "line2": "2 31028  98.7043 263.0160 0165482 340.0889  19.3862 13.89048666617726"}}, "geometry": {"type": "Point", "coordinates": [-131.0160694544401, 76.62344643660062]}}, {"type": "Feature", "properties": {"norad_id": 31029, "name": "FENGYUN 1C DEB", "group": "fengyun-1c-debris", "lat": 32.967952612491004, "lon": 59.03131836759636, "alt_km": 728.1220188573407, "timestamp": "2025-12-02T13:52:17.542233+00:00", "meta": {"OBJECT_NAME": "FENGYUN 1C DEB", "OBJECT_ID": "1999-025BDX", "EPOCH": "2025-12-01T23:52:29.710848", "MEAN_MOTION": 14.34289236, "ECCENTRICITY": 0.00899837, "INCLINATION": 98.8585, "RA_OF_ASC_NODE": 232.6282, "ARG_OF_PERICENTER": 105.0472, "MEAN_ANOMALY": 271.1699, "EPHEMERIS_TYPE": 0, "CLASSIFICATION_TYPE": "U", "NORAD_CAT_ID": 31029, "ELEMENT_SET_NO": 999, "REV_AT_EPOCH": 97642, "BSTAR": 0.0003583207, "MEAN_MOTION_DOT": 1.007e-05, "MEAN_MOTION_DDOT": 0}, "tle": {"line1": "1 31029U 99025BDX 25335.99478832  .00001007  00000+0  35832-3 0  9999", "line2": "2 31029  98.8585 232.6282 0089983 105.0472 271.1699 14.34289236976426"}}, "geometry": {"type": "Point", "coordinates": [59.03131836759636, 32.967952612491004]}}, {"type": "Feature", "properties": {"norad_id": 31030, "name": "FENGYUN 1C DEB", "group": "fengyun-1c-debris", "lat": -3.4414949622939894, "lon": 39.06682635026289, "alt_km": 825.4277750207148, "timestamp": "2025-12-02T13:52:17.542243+00:00", "meta": {"OBJECT_NAME": "FENGYUN 1C DEB", "OBJECT_ID": "1999-025BDY", "EPOCH": "2025-11-30T02:59:24.955296", "MEAN_MOTION": 14.23591651, "ECCENTRICITY": 0.00283621, "INCLINATION": 98.7682, "RA_OF_ASC_NODE": 36.0903, "ARG_OF_PERICENTER": 119.683, "MEAN_ANOMALY": 270.8549, "EPHEMERIS_TYPE": 0, "CLASSIFICATION_TYPE": "U", "NORAD_CAT_ID": 31030, "ELEMENT_SET_NO": 999, "REV_AT_EPOCH": 96525, "BSTAR": 0.0010789134, "MEAN_MOTION_DOT": 2.424e-05, "MEAN_MOTION_DDOT": 0}, "tle": {"line1": "1 31030U 99025BDY 25334.12459439  .00002424  00000+0  10789-2 0  9994", "line2": "2 31030  98.7682  36.0903 0028362 119.6830 270.8549 14.23591651965258"}}, "geometry": {"type": "Point", "coordinates": [39.06682635026289, -3.4414949622939894]}}, {"type": "Feature", "properties": {"norad_id": 31031, "name": "FENGYUN 1C DEB", "group": "fengyun-1c-debris", "lat": 78.76745214311926, "lon": 126.96233876637599, "alt_km": 824.5124368860315, "timestamp": "2025-12-02T13:52:17.542253+00:00", "meta": {"OBJECT_NAME": "FENGYUN 1C DEB", "OBJECT_ID": "1999-025BDZ", "EPOCH": "2025-12-02T00:11:16.255392", "MEAN_MOTION": 14.20952333, "ECCENTRICITY": 0.00273803, "INCLINATION": 99.0704, "RA_OF_ASC_NODE": 252.8271, "ARG_OF_PERICENTER": 218.0454, "MEAN_ANOMALY": 203.9056, "EPHEMERIS_TYPE": 0, "CLASSIFICATION_TYPE": "U", "NORAD_CAT_ID": 31031, "ELEMENT_SET_NO": 999, "REV_AT_EPOCH": 96702, "BSTAR": 0.00049058566, "MEAN_MOTION_DOT": 1.02e-05, "MEAN_MOTION_DDOT": 0}, "tle": {"line1": "1 31031U 99025BDZ 25336.00782703  .00001020  00000+0  49059-3 0  9991", "line2": "2 31031  99.0704 252.8271 0027380 218.0454 203.9056 14.20952333967021"}}, "geometry": {"type": "Point", "coordinates": [126.96233876637599, 78.76745214311926]}}, {"type": "Feature", "properties": {"norad_id": 31032, "name": "FENGYUN 1C DEB", "group": "fengyun-1c-debris", "lat": 77.71291421254689, "lon": -64.43802985212673, "alt_km": 957.5810358936515, "timestamp": "2025-12-02T13:52:17.542263+00:00", "meta": {"OBJECT_NAME": "FENGYUN 1C DEB", "OBJECT_ID": "1999-025BEA", "EPOCH": "2025-12-01T23:54:42.533568", "MEAN_MOTION": 14.02131489, "ECCENTRICITY": 0.01386197, "INCLINATION": 99.4015, "RA_OF_ASC_NODE": 344.4881, "ARG_OF_PERICENTER": 225.3673, "MEAN_ANOMALY": 163.2841, "EPHEMERIS_TYPE": 0, "CLASSIFICATION_TYPE": "U", "NORAD_CAT_ID": 31032, "ELEMENT_SET_NO": 999, "REV_AT_EPOCH": 94831, "BSTAR": 0.0014112965, "MEAN_MOTION_DOT": 2.299e-05, "MEAN_MOTION_DDOT": 0}, "tle": {"line1": "1 31032U 99025BEA 25335.99632562  .00002299  00000+0  14113-2 0  9997", "line2": "2 31032  99.4015 344.4881 0138619 225.3673 163.2841 14.02131489948310"}}, "geometry": {"type": "Point", "coordinates": [-64.43802985212673, 77.71291421254689]}}, {"type": "Feature", "properties": {"norad_id": 31033, "name": "FENGYUN 1C DEB", "group": "fengyun-1c-debris", "lat": -63.9898664895306, "lon": -27.037975367995895, "alt_km": 906.8764107000252, "timestamp": "2025-12-02T13:52:17.542273+00:00", "meta": {"OBJECT_NAME": "FENGYUN 1C DEB", "OBJECT_ID": "1999-025BEB", "EPOCH": "2025-12-01T17:08:56.359680", "MEAN_MOTION": 14.27434151, "ECCENTRICITY": 0.01537303, "INCLINATION": 98.4374, "RA_OF_ASC_NODE": 314.4189, "ARG_OF_PERICENTER": 142.7046, "MEAN_ANOMALY": 36.8031, "EPHEMERIS_TYPE": 0, "CLASSIFICATION_TYPE": "U", "NORAD_CAT_ID": 31033, "ELEMENT_SET_NO": 999, "REV_AT_EPOCH": 97188, "BSTAR": 0.00017898269, "MEAN_MOTION_DOT": 4.55e-06, "MEAN_MOTION_DDOT": 0}, "tle": {"line1": "1 31033U 99025BEB 25335.71454120  .00000455  00000+0  17898-3 0  9996", "line2": "2 31033  98.4374 314.4189 0153730 142.7046  36.8031 14.27434151971886"}}, "geometry": {"type": "Point", "coordinates": [-27.037975367995895, -63.9898664895306]}}, {"type": "Feature", "properties": {"norad_id": 31036, "name": "FENGYUN 1C DEB", "group": "fengyun-1c-debris", "lat": 34.38182293630454, "lon": 76.29863599825124, "alt_km": 741.5435864192905, "timestamp": "2025-12-02T13:52:17.542284+00:00", "meta": {"OBJECT_NAME": "FENGYUN 1C DEB", "OBJECT_ID": "1999-025BEE", "EPOCH": "2025-12-02T02:41:19.237344", "MEAN_MOTION": 14.49038568, "ECCENTRICITY": 0.01376503, "INCLINATION": 98.9154, "RA_OF_ASC_NODE": 81.9725, "ARG_OF_PERICENTER": 296.7448, "MEAN_ANOMALY": 187.391, "EPHEMERIS_TYPE": 0, "CLASSIFICATION_TYPE": "U", "NORAD_CAT_ID": 31036, "ELEMENT_SET_NO": 999, "REV_AT_EPOCH": 57153, "BSTAR": 0.00023366898, "MEAN_MOTION_DOT": 9.42e-06, "MEAN_MOTION_DDOT": 0}, "tle": {"line1": "1 31036U 99025BEE 25336.11202821  .00000942  00000+0  23367-3 0  9992", "line2": "2 31036  98.9154  81.9725 0137650 296.7448 187.3910 14.49038568571533"}}, "geometry": {"type": "Point", "coordinates": [76.29863599825124, 34.38182293630454]}}]}